CCSDS_OMM_VERS = 2.0
CREATION_DATE  = 
ORIGINATOR     = 

OBJECT_NAME    = SL-16 R/B
OBJECT_ID      = 1998-043G
CENTER_NAME    = EARTH
REF_FRAME      = TEME
TIME_SYSTEM    = UTC
MEAN_ELEMENT_THEORY = SGP/SGP4

EPOCH          = 2026-03-03T18:25:30.334944
MEAN_MOTION    = 14.26048137
ECCENTRICITY   = .0010488
INCLINATION    = 98.8245
RA_OF_ASC_NODE = 16.0896
ARG_OF_PERICENTER = 36.6791
MEAN_ANOMALY   = 323.5105

EPHEMERIS_TYPE = 0
CLASSIFICATION_TYPE = U
NORAD_CAT_ID   = 25400
ELEMENT_SET_NO = 999
REV_AT_EPOCH   = 43814
BSTAR          = .51592E-4
MEAN_MOTION_DOT = .78E-6
MEAN_MOTION_DDOT = 0

CCSDS_OMM_VERS = 2.0
CREATION_DATE  = 
ORIGINATOR     = 

OBJECT_NAME    = SL-16 R/B
OBJECT_ID      = 1998-045B
CENTER_NAME    = EARTH
REF_FRAME      = TEME
TIME_SYSTEM    = UTC
MEAN_ELEMENT_THEORY = SGP/SGP4

EPOCH          = 2026-03-03T18:45:01.036800
MEAN_MOTION    = 14.16189420
ECCENTRICITY   = .0006395
INCLINATION    = 71.0112
RA_OF_ASC_NODE = 193.9979
ARG_OF_PERICENTER = 17.0539
MEAN_ANOMALY   = 343.0798

EPHEMERIS_TYPE = 0
CLASSIFICATION_TYPE = U
NORAD_CAT_ID   = 25407
ELEMENT_SET_NO = 999
REV_AT_EPOCH   = 42626
BSTAR          = -.80139E-4
MEAN_MOTION_DOT = -.206E-5
MEAN_MOTION_DDOT = 0

CCSDS_OMM_VERS = 2.0
CREATION_DATE  = 
ORIGINATOR     = 

OBJECT_NAME    = ISS (ZARYA)
OBJECT_ID      = 1998-067A
CENTER_NAME    = EARTH
REF_FRAME      = TEME
TIME_SYSTEM    = UTC
MEAN_ELEMENT_THEORY = SGP/SGP4

EPOCH          = 2026-03-03T18:28:10.188768
MEAN_MOTION    = 15.48425902
ECCENTRICITY   = .0008204
INCLINATION    = 51.6317
RA_OF_ASC_NODE = 101.6250
ARG_OF_PERICENTER = 153.6152
MEAN_ANOMALY   = 206.5256

EPHEMERIS_TYPE = 0
CLASSIFICATION_TYPE = U
NORAD_CAT_ID   = 25544
ELEMENT_SET_NO = 999
REV_AT_EPOCH   = 55541
BSTAR          = .19358E-3
MEAN_MOTION_DOT = .10027E-3
MEAN_MOTION_DDOT = 0

CCSDS_OMM_VERS = 2.0
CREATION_DATE  = 
ORIGINATOR     = 

OBJECT_NAME    = CZ-4B R/B
OBJECT_ID      = 1999-025C
CENTER_NAME    = EARTH
REF_FRAME      = TEME
TIME_SYSTEM    = UTC
MEAN_ELEMENT_THEORY = SGP/SGP4

EPOCH          = 2026-03-03T17:58:51.730176
MEAN_MOTION    = 14.18263948
ECCENTRICITY   = .0037082
INCLINATION    = 98.6639
RA_OF_ASC_NODE = 107.1713
ARG_OF_PERICENTER = 3.7679
MEAN_ANOMALY   = 107.5443

EPHEMERIS_TYPE = 0
CLASSIFICATION_TYPE = U
NORAD_CAT_ID   = 25732
ELEMENT_SET_NO = 999
REV_AT_EPOCH   = 38732
BSTAR          = .59787E-4
MEAN_MOTION_DOT = .81E-6
MEAN_MOTION_DDOT = 0

CCSDS_OMM_VERS = 2.0
CREATION_DATE  = 
ORIGINATOR     = 

OBJECT_NAME    = OKEAN-O
OBJECT_ID      = 1999-039A
CENTER_NAME    = EARTH
REF_FRAME      = TEME
TIME_SYSTEM    = UTC
MEAN_ELEMENT_THEORY = SGP/SGP4

EPOCH          = 2026-03-03T16:53:22.714368
MEAN_MOTION    = 14.80324289
ECCENTRICITY   = .0001442
INCLINATION    = 97.9454
RA_OF_ASC_NODE = 122.6557
ARG_OF_PERICENTER = 71.1339
MEAN_ANOMALY   = 289.0030

EPHEMERIS_TYPE = 0
CLASSIFICATION_TYPE = U
NORAD_CAT_ID   = 25860
ELEMENT_SET_NO = 999
REV_AT_EPOCH   = 43350
BSTAR          = .12426E-3
MEAN_MOTION_DOT = .895E-5
MEAN_MOTION_DDOT = 0

CCSDS_OMM_VERS = 2.0
CREATION_DATE  = 
ORIGINATOR     = 

OBJECT_NAME    = SL-16 R/B
OBJECT_ID      = 1999-039B
CENTER_NAME    = EARTH
REF_FRAME      = TEME
TIME_SYSTEM    = UTC
MEAN_ELEMENT_THEORY = SGP/SGP4

EPOCH          = 2026-03-03T18:09:44.982432
MEAN_MOTION    = 14.81722059
ECCENTRICITY   = .0013446
INCLINATION    = 97.9978
RA_OF_ASC_NODE = 121.8620
ARG_OF_PERICENTER = 277.3941
MEAN_ANOMALY   = 82.5744

EPHEMERIS_TYPE = 0
CLASSIFICATION_TYPE = U
NORAD_CAT_ID   = 25861
ELEMENT_SET_NO = 999
REV_AT_EPOCH   = 43598
BSTAR          = .10777E-3
MEAN_MOTION_DOT = .796E-5
MEAN_MOTION_DDOT = 0

CCSDS_OMM_VERS = 2.0
CREATION_DATE  = 
ORIGINATOR     = 

OBJECT_NAME    = DELTA 2 R/B
OBJECT_ID      = 1999-041E
CENTER_NAME    = EARTH
REF_FRAME      = TEME
TIME_SYSTEM    = UTC
MEAN_ELEMENT_THEORY = SGP/SGP4

EPOCH          = 2026-03-03T01:41:23.444736
MEAN_MOTION    = 14.11813362
ECCENTRICITY   = .05023561
INCLINATION    = 51.7651
RA_OF_ASC_NODE = 327.7179
ARG_OF_PERICENTER = 328.8923
MEAN_ANOMALY   = 28.3138

EPHEMERIS_TYPE = 0
CLASSIFICATION_TYPE = U
NORAD_CAT_ID   = 25876
ELEMENT_SET_NO = 999
REV_AT_EPOCH   = 36209
BSTAR          = .31033897E-3
MEAN_MOTION_DOT = .1695E-4
MEAN_MOTION_DDOT = 0

CCSDS_OMM_VERS = 2.0
CREATION_DATE  = 
ORIGINATOR     = 

OBJECT_NAME    = HELIOS 1B
OBJECT_ID      = 1999-064A
CENTER_NAME    = EARTH
REF_FRAME      = TEME
TIME_SYSTEM    = UTC
MEAN_ELEMENT_THEORY = SGP/SGP4

EPOCH          = 2026-03-03T17:27:58.298112
MEAN_MOTION    = 14.87668345
ECCENTRICITY   = .0002502
INCLINATION    = 98.1703
RA_OF_ASC_NODE = 324.7958
ARG_OF_PERICENTER = 83.0992
MEAN_ANOMALY   = 277.0507

EPHEMERIS_TYPE = 0
CLASSIFICATION_TYPE = U
NORAD_CAT_ID   = 25977
ELEMENT_SET_NO = 999
REV_AT_EPOCH   = 68437
BSTAR          = .30562E-3
MEAN_MOTION_DOT = .2724E-4
MEAN_MOTION_DDOT = 0

CCSDS_OMM_VERS = 2.0
CREATION_DATE  = 
ORIGINATOR     = 

OBJECT_NAME    = TERRA
OBJECT_ID      = 1999-068A
CENTER_NAME    = EARTH
REF_FRAME      = TEME
TIME_SYSTEM    = UTC
MEAN_ELEMENT_THEORY = SGP/SGP4

EPOCH          = 2026-03-03T18:11:52.490688
MEAN_MOTION    = 14.61007359
ECCENTRICITY   = .0002299
INCLINATION    = 97.9606
RA_OF_ASC_NODE = 116.4193
ARG_OF_PERICENTER = 165.9720
MEAN_ANOMALY   = 262.2336

EPHEMERIS_TYPE = 0
CLASSIFICATION_TYPE = U
NORAD_CAT_ID   = 25994
ELEMENT_SET_NO = 999
REV_AT_EPOCH   = 39421
BSTAR          = .12797E-3
MEAN_MOTION_DOT = .583E-5
MEAN_MOTION_DDOT = 0

CCSDS_OMM_VERS = 2.0
CREATION_DATE  = 
ORIGINATOR     = 

OBJECT_NAME    = SL-16 R/B
OBJECT_ID      = 2000-006B
CENTER_NAME    = EARTH
REF_FRAME      = TEME
TIME_SYSTEM    = UTC
MEAN_ELEMENT_THEORY = SGP/SGP4

EPOCH          = 2026-03-03T12:18:04.313952
MEAN_MOTION    = 14.15824433
ECCENTRICITY   = .0017215
INCLINATION    = 71.0014
RA_OF_ASC_NODE = 110.8267
ARG_OF_PERICENTER = 198.7334
MEAN_ANOMALY   = 161.3158

EPHEMERIS_TYPE = 0
CLASSIFICATION_TYPE = U
NORAD_CAT_ID   = 26070
ELEMENT_SET_NO = 999
REV_AT_EPOCH   = 34768
BSTAR          = .14259E-3
MEAN_MOTION_DOT = .233E-5
MEAN_MOTION_DDOT = 0

CCSDS_OMM_VERS = 2.0
CREATION_DATE  = 
ORIGINATOR     = 

OBJECT_NAME    = TITAN 4B R/B
OBJECT_ID      = 2000-047B
CENTER_NAME    = EARTH
REF_FRAME      = TEME
TIME_SYSTEM    = UTC
MEAN_ELEMENT_THEORY = SGP/SGP4

EPOCH          = 2026-03-03T19:11:13.184160
MEAN_MOTION    = 15.09493071
ECCENTRICITY   = .0038002
INCLINATION    = 67.9885
RA_OF_ASC_NODE = 57.0722
ARG_OF_PERICENTER = 42.3798
MEAN_ANOMALY   = 318.0275

EPHEMERIS_TYPE = 0
CLASSIFICATION_TYPE = U
NORAD_CAT_ID   = 26474
ELEMENT_SET_NO = 999
REV_AT_EPOCH   = 39202
BSTAR          = .35565E-3
MEAN_MOTION_DOT = .5677E-4
MEAN_MOTION_DDOT = 0

CCSDS_OMM_VERS = 2.0
CREATION_DATE  = 
ORIGINATOR     = 

OBJECT_NAME    = ENVISAT
OBJECT_ID      = 2002-009A
CENTER_NAME    = EARTH
REF_FRAME      = TEME
TIME_SYSTEM    = UTC
MEAN_ELEMENT_THEORY = SGP/SGP4

EPOCH          = 2026-03-03T20:03:02.002176
MEAN_MOTION    = 14.39034374
ECCENTRICITY   = .0001333
INCLINATION    = 98.3719
RA_OF_ASC_NODE = 16.5725
ARG_OF_PERICENTER = 84.6244
MEAN_ANOMALY   = 308.1164

EPHEMERIS_TYPE = 0
CLASSIFICATION_TYPE = U
NORAD_CAT_ID   = 27386
ELEMENT_SET_NO = 999
REV_AT_EPOCH   = 25833
BSTAR          = .70207E-4
MEAN_MOTION_DOT = .174E-5
MEAN_MOTION_DDOT = 0

